[{"OBJECT_NAME":"STARLINK-30425","OBJECT_ID":"2023-141L","EPOCH":"2026-03-09T21:15:33.056928","MEAN_MOTION":15.30192579,"ECCENTRICITY":0.00011571,"INCLINATION":53.1599,"RA_OF_ASC_NODE":283.2874,"ARG_OF_PERICENTER":87.6443,"MEAN_ANOMALY":272.469,"EPHEMERIS_TYPE":0,"CLASSIFICATION_TYPE":"U","NORAD_CAT_ID":57850,"ELEMENT_SET_NO":999,"REV_AT_EPOCH":14035,"BSTAR":1.9558693e-5,"MEAN_MOTION_DOT":2.2e-6,"MEAN_MOTION_DDOT":0},{"OBJECT_NAME":"COSMOS 1975","OBJECT_ID":"1988-093A","EPOCH":"2026-03-09T14:15:08.474112","MEAN_MOTION":15.28069249,"ECCENTRICITY":0.0012117,"INCLINATION":82.5181,"RA_OF_ASC_NODE":117.7814,"ARG_OF_PERICENTER":163.8427,"MEAN_ANOMALY":196.3201,"EPHEMERIS_TYPE":0,"CLASSIFICATION_TYPE":"U","NORAD_CAT_ID":19573,"ELEMENT_SET_NO":999,"REV_AT_EPOCH":1939,"BSTAR":0.0002787,"MEAN_MOTION_DOT":7.676e-5,"MEAN_MOTION_DDOT":0}]
